0 COSMOS 2251 DEB
1 35074U 93036AJD 13281.49149284  .00033844  00000-0  27102-2 0  5617
2 35074 073.9649 316.7856 0042741 136.6019 290.4395 14.99279812238859
0 COSMOS 2251 DEB
1 35074U 93036AJD 13283.42585797  .00062409  00000-0  49474-2 0  5621
2 35074 073.9652 312.8402 0042410 132.1279 291.8722 14.99506709239149
0 COSMOS 2251 DEB
1 35074U 93036AJD 13285.51015676  .00050193  00000-0  39690-2 0  5634
2 35074 073.9640 308.5861 0042049 127.1892 024.2537 14.99684297239466
0 COSMOS 2251 DEB
1 35074U 93036AJD 13286.51064269  .00046414  00000-0  36639-2 0  5649
2 35074 073.9648 306.5478 0042108 124.9253 025.8993 14.99769366239619
0 COSMOS 2251 DEB
1 35074U 93036AJD 13287.51263536  .00055031  00000-0  43285-2 0  5659
2 35074 073.9642 304.5031 0042146 122.5579 036.0910 14.99855878239766
0 COSMOS 2251 DEB
1 35074U 93036AJD 13287.77301162  .00071661  00000-0  56169-2 0  5668
2 35074 073.9640 303.9716 0042206 122.0225 001.9483 14.99894460239808
0 COSMOS 2251 DEB
1 35074U 93036AJD 13289.02309676  .00075162  00000-0  58609-2 0  5678
2 35074 073.9635 301.4196 0042144 119.0445 272.5106 15.00074709239984
0 COSMOS 2251 DEB
1 35074U 93036AJD 13289.77310510  .00082349  00000-0  64062-2 0  5685
2 35074 073.9635 299.8886 0041613 116.6750 003.5447 15.00143398240109
0 COSMOS 2251 DEB
1 35074U 93036AJD 13290.43078942  .00082005  00000-0  63639-2 0  5699
2 35074 073.9633 298.5445 0042075 115.8286 314.8537 15.00222867240198
0 COSMOS 2251 DEB
1 35074U 93036AJD 13291.36309264  .00069329  00000-0  53737-2 0  5700
2 35074 073.9633 296.6401 0041909 113.6409 310.3488 15.00342881240338
0 COSMOS 2251 DEB
1 35074U 93036AJD 13292.44667782  .00070850  00000-0  54707-2 0  5712
2 35074 073.9641 294.4281 0041893 111.2712 043.2472 15.00480107240500
0 COSMOS 2251 DEB
1 35074U 93036AJD 13293.70772139  .00076472  00000-0  58757-2 0  5721
2 35074 073.9642 291.8500 0042068 108.5589 015.2902 15.00631432240698
0 COSMOS 2251 DEB
1 35074U 93036AJD 13295.36394855  .00093214  00000-0  71043-2 0  5737
2 35074 073.9634 288.4655 0042223 105.1109 323.0745 15.00844471240937
